{
    "links": {
        "self": "http://www.neowsapp.com/rest/v1/neo/3653555?api_key=iIulBulltgU6a56xZRHN4H3l9WmuAYTsLGpBGhQ2"
    },
    "id": "3653555",
    "neo_reference_id": "3653555",
    "name": "(2013 VN5)",
    "designation": "2013 VN5",
    "nasa_jpl_url": "http://ssd.jpl.nasa.gov/sbdb.cgi?sstr=3653555",
    "absolute_magnitude_h": 27.4,
    "estimated_diameter": {
        "kilometers": {
            "estimated_diameter_min": 0.0088014652,
            "estimated_diameter_max": 0.0196806745
        },
        "meters": {
            "estimated_diameter_min": 8.801465209,
            "estimated_diameter_max": 19.6806745089
        },
        "miles": {
            "estimated_diameter_min": 0.0054689752,
            "estimated_diameter_max": 0.0122290004
        },
        "feet": {
            "estimated_diameter_min": 28.8761991163,
            "estimated_diameter_max": 64.5691441559
        }
    },
    "is_potentially_hazardous_asteroid": false,
    "close_approach_data": [
        {
            "close_approach_date": "2013-11-03",
            "close_approach_date_full": "2013-Nov-03 16:03",
            "epoch_date_close_approach": 1383494580000,
            "relative_velocity": {
                "kilometers_per_second": "10.4781974432",
                "kilometers_per_hour": "37721.5107956572",
                "miles_per_hour": "23438.6798607793"
            },
            "miss_distance": {
                "astronomical": "0.0044215495",
                "lunar": "1.7199827555",
                "kilometers": "661454.387299565",
                "miles": "411008.697541397"
            },
            "orbiting_body": "Moon"
        },
        {
            "close_approach_date": "2013-11-03",
            "close_approach_date_full": "2013-Nov-03 23:11",
            "epoch_date_close_approach": 1383520260000,
            "relative_velocity": {
                "kilometers_per_second": "9.9756625622",
                "kilometers_per_hour": "35912.3852237485",
                "miles_per_hour": "22314.5595852786"
            },
            "miss_distance": {
                "astronomical": "0.0033561834",
                "lunar": "1.3055553426",
                "kilometers": "502077.887969358",
                "miles": "311976.7330308204"
            },
            "orbiting_body": "Earth"
        }
    ],
    "orbital_data": {
        "orbit_id": "5",
        "orbit_determination_date": "2017-04-06 08:43:47",
        "first_observation_date": "2013-11-06",
        "last_observation_date": "2013-11-08",
        "data_arc_in_days": 2,
        "observations_used": 26,
        "orbit_uncertainty": "7",
        "minimum_orbit_intersection": ".000334887",
        "jupiter_tisserand_invariant": "3.997",
        "epoch_osculation": "2459000.5",
        "eccentricity": ".4730541675688212",
        "semi_major_axis": "1.746699641206674",
        "inclination": "4.53350456059195",
        "ascending_node_longitude": "220.5773167694136",
        "orbital_period": "843.1906332076987",
        "perihelion_distance": ".9204160964428922",
        "perihelion_argument": "141.2746503811737",
        "aphelion_distance": "2.572983185970456",
        "perihelion_time": "2459099.102815596024",
        "mean_anomaly": "317.9015560460751",
        "mean_motion": ".4269497143611213",
        "equinox": "J2000",
        "orbit_class": {
            "orbit_class_type": "APO",
            "orbit_class_description": "Near-Earth asteroid orbits which cross the Earth’s orbit similar to that of 1862 Apollo",
            "orbit_class_range": "a (semi-major axis) > 1.0 AU; q (perihelion) < 1.017 AU"
        }
    },
    "is_sentry_object": false
}